CCSDS_OMM_VERS = 2.0
CREATION_DATE  = 
ORIGINATOR     = 

OBJECT_NAME    = ALOS (DAICHI)
OBJECT_ID      = 2006-002A
CENTER_NAME    = EARTH
REF_FRAME      = TEME
TIME_SYSTEM    = UTC
MEAN_ELEMENT_THEORY = SGP/SGP4

EPOCH          = 2026-03-02T21:35:10.205088
MEAN_MOTION    = 14.69783069
ECCENTRICITY   = .00011841
INCLINATION    = 98.1206
RA_OF_ASC_NODE = 17.8895
ARG_OF_PERICENTER = 51.1652
MEAN_ANOMALY   = 308.9660

EPHEMERIS_TYPE = 0
CLASSIFICATION_TYPE = U
NORAD_CAT_ID   = 28931
ELEMENT_SET_NO = 999
REV_AT_EPOCH   = 7248
BSTAR          = .29745922E-3
MEAN_MOTION_DOT = .1726E-4
MEAN_MOTION_DDOT = 0

CCSDS_OMM_VERS = 2.0
CREATION_DATE  = 
ORIGINATOR     = 

OBJECT_NAME    = H-2A R/B
OBJECT_ID      = 2006-002B
CENTER_NAME    = EARTH
REF_FRAME      = TEME
TIME_SYSTEM    = UTC
MEAN_ELEMENT_THEORY = SGP/SGP4

EPOCH          = 2026-03-02T22:39:38.484288
MEAN_MOTION    = 15.16243282
ECCENTRICITY   = .00519535
INCLINATION    = 98.2396
RA_OF_ASC_NODE = 208.3895
ARG_OF_PERICENTER = 264.2394
MEAN_ANOMALY   = 95.2912

EPHEMERIS_TYPE = 0
CLASSIFICATION_TYPE = U
NORAD_CAT_ID   = 28932
ELEMENT_SET_NO = 999
REV_AT_EPOCH   = 9341
BSTAR          = .58335957E-3
MEAN_MOTION_DOT = .11604E-3
MEAN_MOTION_DDOT = 0

CCSDS_OMM_VERS = 2.0
CREATION_DATE  = 
ORIGINATOR     = 

OBJECT_NAME    = RESURS-DK 1
OBJECT_ID      = 2006-021A
CENTER_NAME    = EARTH
REF_FRAME      = TEME
TIME_SYSTEM    = UTC
MEAN_ELEMENT_THEORY = SGP/SGP4

EPOCH          = 2026-03-02T22:09:03.102912
MEAN_MOTION    = 15.12689731
ECCENTRICITY   = .00024645
INCLINATION    = 69.9302
RA_OF_ASC_NODE = 254.5281
ARG_OF_PERICENTER = 165.6259
MEAN_ANOMALY   = 194.4978

EPHEMERIS_TYPE = 0
CLASSIFICATION_TYPE = U
NORAD_CAT_ID   = 29228
ELEMENT_SET_NO = 999
REV_AT_EPOCH   = 8650
BSTAR          = .1803074E-3
MEAN_MOTION_DOT = .3056E-4
MEAN_MOTION_DDOT = 0

CCSDS_OMM_VERS = 2.0
CREATION_DATE  = 
ORIGINATOR     = 

OBJECT_NAME    = CZ-4B R/B
OBJECT_ID      = 2006-046C
CENTER_NAME    = EARTH
REF_FRAME      = TEME
TIME_SYSTEM    = UTC
MEAN_ELEMENT_THEORY = SGP/SGP4

EPOCH          = 2026-03-02T16:22:59.319264
MEAN_MOTION    = 15.16816042
ECCENTRICITY   = .00318554
INCLINATION    = 97.5608
RA_OF_ASC_NODE = 106.6100
ARG_OF_PERICENTER = 292.8620
MEAN_ANOMALY   = 66.9250

EPHEMERIS_TYPE = 0
CLASSIFICATION_TYPE = U
NORAD_CAT_ID   = 29507
ELEMENT_SET_NO = 999
REV_AT_EPOCH   = 5898
BSTAR          = .29130378E-3
MEAN_MOTION_DOT = .573E-4
MEAN_MOTION_DDOT = 0

CCSDS_OMM_VERS = 2.0
CREATION_DATE  = 
ORIGINATOR     = 

OBJECT_NAME    = CZ-2C R/B
OBJECT_ID      = 2007-010B
CENTER_NAME    = EARTH
REF_FRAME      = TEME
TIME_SYSTEM    = UTC
MEAN_ELEMENT_THEORY = SGP/SGP4

EPOCH          = 2026-03-02T21:24:47.999808
MEAN_MOTION    = 14.20243291
ECCENTRICITY   = .0058086
INCLINATION    = 98.3977
RA_OF_ASC_NODE = 175.5120
ARG_OF_PERICENTER = 314.7333
MEAN_ANOMALY   = 44.9124

EPHEMERIS_TYPE = 0
CLASSIFICATION_TYPE = U
NORAD_CAT_ID   = 31114
ELEMENT_SET_NO = 999
REV_AT_EPOCH   = 97875
BSTAR          = .82015273E-4
MEAN_MOTION_DOT = .137E-5
MEAN_MOTION_DDOT = 0

CCSDS_OMM_VERS = 2.0
CREATION_DATE  = 
ORIGINATOR     = 

OBJECT_NAME    = COSMO-SKYMED 1
OBJECT_ID      = 2007-023A
CENTER_NAME    = EARTH
REF_FRAME      = TEME
TIME_SYSTEM    = UTC
MEAN_ELEMENT_THEORY = SGP/SGP4

EPOCH          = 2026-03-02T23:28:27.306048
MEAN_MOTION    = 14.96470479
ECCENTRICITY   = .00008265
INCLINATION    = 97.8862
RA_OF_ASC_NODE = 252.9570
ARG_OF_PERICENTER = 86.3868
MEAN_ANOMALY   = 273.7447

EPHEMERIS_TYPE = 0
CLASSIFICATION_TYPE = U
NORAD_CAT_ID   = 31598
ELEMENT_SET_NO = 999
REV_AT_EPOCH   = 1390
BSTAR          = .33657838E-3
MEAN_MOTION_DOT = .3761E-4
MEAN_MOTION_DDOT = 0

CCSDS_OMM_VERS = 2.0
CREATION_DATE  = 
ORIGINATOR     = 

OBJECT_NAME    = COSMOS 2428
OBJECT_ID      = 2007-029A
CENTER_NAME    = EARTH
REF_FRAME      = TEME
TIME_SYSTEM    = UTC
MEAN_ELEMENT_THEORY = SGP/SGP4

EPOCH          = 2026-03-02T21:07:10.634880
MEAN_MOTION    = 14.12944293
ECCENTRICITY   = .00087347
INCLINATION    = 70.9419
RA_OF_ASC_NODE = 217.6361
ARG_OF_PERICENTER = 284.2813
MEAN_ANOMALY   = 75.7338

EPHEMERIS_TYPE = 0
CLASSIFICATION_TYPE = U
NORAD_CAT_ID   = 31792
ELEMENT_SET_NO = 999
REV_AT_EPOCH   = 96313
BSTAR          = .70674548E-4
MEAN_MOTION_DOT = .84E-6
MEAN_MOTION_DDOT = 0

CCSDS_OMM_VERS = 2.0
CREATION_DATE  = 
ORIGINATOR     = 

OBJECT_NAME    = SL-16 R/B
OBJECT_ID      = 2007-029B
CENTER_NAME    = EARTH
REF_FRAME      = TEME
TIME_SYSTEM    = UTC
MEAN_ELEMENT_THEORY = SGP/SGP4

EPOCH          = 2026-03-02T19:03:40.608864
MEAN_MOTION    = 14.14834082
ECCENTRICITY   = .00024173
INCLINATION    = 70.9755
RA_OF_ASC_NODE = 186.8781
ARG_OF_PERICENTER = 278.4023
MEAN_ANOMALY   = 233.4083

EPHEMERIS_TYPE = 0
CLASSIFICATION_TYPE = U
NORAD_CAT_ID   = 31793
ELEMENT_SET_NO = 999
REV_AT_EPOCH   = 96439
BSTAR          = -.72517866E-4
MEAN_MOTION_DOT = -.188E-5
MEAN_MOTION_DDOT = 0

CCSDS_OMM_VERS = 2.0
CREATION_DATE  = 
ORIGINATOR     = 

OBJECT_NAME    = KORONAS-FOTON
OBJECT_ID      = 2009-003A
CENTER_NAME    = EARTH
REF_FRAME      = TEME
TIME_SYSTEM    = UTC
MEAN_ELEMENT_THEORY = SGP/SGP4

EPOCH          = 2026-03-02T16:43:04.304640
MEAN_MOTION    = 15.43119406
ECCENTRICITY   = .00106864
INCLINATION    = 82.4283
RA_OF_ASC_NODE = 283.1490
ARG_OF_PERICENTER = 173.5665
MEAN_ANOMALY   = 186.5722

EPHEMERIS_TYPE = 0
CLASSIFICATION_TYPE = U
NORAD_CAT_ID   = 33504
ELEMENT_SET_NO = 999
REV_AT_EPOCH   = 94466
BSTAR          = .2986688E-3
MEAN_MOTION_DOT = .1328E-3
MEAN_MOTION_DDOT = 0

CCSDS_OMM_VERS = 2.0
CREATION_DATE  = 
ORIGINATOR     = 

OBJECT_NAME    = CZ-2C R/B
OBJECT_ID      = 2011-030B
CENTER_NAME    = EARTH
REF_FRAME      = TEME
TIME_SYSTEM    = UTC
MEAN_ELEMENT_THEORY = SGP/SGP4

EPOCH          = 2026-03-02T20:31:22.856160
MEAN_MOTION    = 14.81188763
ECCENTRICITY   = .00530549
INCLINATION    = 97.8530
RA_OF_ASC_NODE = 19.2554
ARG_OF_PERICENTER = 14.2735
MEAN_ANOMALY   = 39.3040

EPHEMERIS_TYPE = 0
CLASSIFICATION_TYPE = U
NORAD_CAT_ID   = 37731
ELEMENT_SET_NO = 999
REV_AT_EPOCH   = 78908
BSTAR          = .27443695E-3
MEAN_MOTION_DOT = .2133E-4
MEAN_MOTION_DDOT = 0

CCSDS_OMM_VERS = 2.0
CREATION_DATE  = 
ORIGINATOR     = 

OBJECT_NAME    = H-2A R/B
OBJECT_ID      = 2012-025E
CENTER_NAME    = EARTH
REF_FRAME      = TEME
TIME_SYSTEM    = UTC
MEAN_ELEMENT_THEORY = SGP/SGP4

EPOCH          = 2026-03-02T21:39:21.657600
MEAN_MOTION    = 14.95093298
ECCENTRICITY   = .00440121
INCLINATION    = 98.4711
RA_OF_ASC_NODE = 28.4055
ARG_OF_PERICENTER = 336.6891
MEAN_ANOMALY   = 23.2331

EPHEMERIS_TYPE = 0
CLASSIFICATION_TYPE = U
NORAD_CAT_ID   = 38341
ELEMENT_SET_NO = 999
REV_AT_EPOCH   = 74720
BSTAR          = .4464152E-3
MEAN_MOTION_DOT = .4919E-4
MEAN_MOTION_DDOT = 0

CCSDS_OMM_VERS = 2.0
CREATION_DATE  = 
ORIGINATOR     = 

OBJECT_NAME    = SHIJIAN-16 (SJ-16)
OBJECT_ID      = 2013-057A
CENTER_NAME    = EARTH
REF_FRAME      = TEME
TIME_SYSTEM    = UTC
MEAN_ELEMENT_THEORY = SGP/SGP4

EPOCH          = 2026-03-02T23:48:37.078848
MEAN_MOTION    = 14.92303496
ECCENTRICITY   = .00157558
INCLINATION    = 74.9725
RA_OF_ASC_NODE = 197.7651
ARG_OF_PERICENTER = 129.9036
MEAN_ANOMALY   = 230.3541

EPHEMERIS_TYPE = 0
CLASSIFICATION_TYPE = U
NORAD_CAT_ID   = 39358
ELEMENT_SET_NO = 999
REV_AT_EPOCH   = 67050
BSTAR          = .19776754E-3
MEAN_MOTION_DOT = .1996E-4
MEAN_MOTION_DDOT = 0

