ALOS (DAICHI)           
1 28931U 06002A   26061.89942367  .00001726  00000+0  29746-3 0  9990
2 28931  98.1206  17.8895 0001184  51.1652 308.9660 14.69783069 72489
H-2A R/B                
1 28932U 06002B   26061.94419542  .00011604  00000+0  58336-3 0  9994
2 28932  98.2396 208.3895 0051953 264.2394  95.2912 15.16243282 93410
RESURS-DK 1             
1 29228U 06021A   26061.92295258  .00003056  00000+0  18031-3 0  9998
2 29228  69.9302 254.5281 0002464 165.6259 194.4978 15.12689731 86505
CZ-4B R/B               
1 29507U 06046C   26061.68263101  .00005730  00000+0  29130-3 0  9993
2 29507  97.5608 106.6100 0031855 292.8620  66.9250 15.16816042 58987
CZ-2C R/B               
1 31114U 07010B   26061.89222222  .00000137  00000+0  82015-4 0  9992
2 31114  98.3977 175.5120 0058086 314.7333  44.9124 14.20243291978755
COSMO-SKYMED 1          
1 31598U 07023A   26061.97809382  .00003761  00000+0  33658-3 0  9993
2 31598  97.8862 252.9570 0000826  86.3868 273.7447 14.96470479 13901
COSMOS 2428             
1 31792U 07029A   26061.87998420  .00000084  00000+0  70675-4 0  9992
2 31792  70.9419 217.6361 0008734 284.2813  75.7338 14.12944293963134
SL-16 R/B               
1 31793U 07029B   26061.79422001 -.00000188  00000+0 -72518-4 0  9996
2 31793  70.9755 186.8781 0002417 278.4023 233.4083 14.14834082964396
KORONAS-FOTON           
1 33504U 09003A   26061.69657760  .00013280  00000+0  29867-3 0  9996
2 33504  82.4283 283.1490 0010686 173.5665 186.5722 15.43119406944669
CZ-2C R/B               
1 37731U 11030B   26061.85512565  .00002133  00000+0  27444-3 0  9990
2 37731  97.8530  19.2554 0053054  14.2735  39.3040 14.81188763789088
H-2A R/B                
1 38341U 12025E   26061.90233400  .00004919  00000+0  44642-3 0  9990
2 38341  98.4711  28.4055 0044012 336.6891  23.2331 14.95093298747206
SHIJIAN-16 (SJ-16)      
1 39358U 13057A   26061.99209582  .00001996  00000+0  19777-3 0  9991
2 39358  74.9725 197.7651 0015755 129.9036 230.3541 14.92303496670500
